0 TITAN 3C TRANSTAGE DEB
1 28550U 65108BR  13281.10348269  .00000563  00000-0  11434-1 0  5127
2 28550 026.9840 025.4351 6712223 279.1376 016.1253 02.74888374108962
0 TITAN 3C TRANSTAGE DEB
1 28550U 65108BR  13282.16847495  .00000584  00000-0  11515-1 0  5133
2 28550 026.9964 025.0881 6714715 279.7874 350.0350 02.74887824108990
0 TITAN 3C TRANSTAGE DEB
1 28550U 65108BR  13293.83290790  .00000551  00000-0  11515-1 0  5144
2 28550 027.0107 020.1917 6714959 287.9447 013.3612 02.74902327109317
